FLOCK 4G-13             
1 62621U 25009N   26068.70638971  .00053076  00000+0  16695-2 0  9995
2 62621  97.4019 151.0918 0003801 292.7207  67.3633 15.32770015 63700
STARLINK-34347          
1 64226U 25117Z   26068.29564248  .00026074  00000+0  88940-3 0  9998
2 64226  53.1608  41.5509 0001184 103.8437 256.2696 15.30199182 44462
